[{"OBJECT_NAME":"STARLINK-32100","OBJECT_ID":"2024-086E","EPOCH":"2025-09-30T06:20:14.772768","MEAN_MOTION":15.27538706,"ECCENTRICITY":9.951e-5,"INCLINATION":43.0027,"RA_OF_ASC_NODE":227.7852,"ARG_OF_PERICENTER":283.5229,"MEAN_ANOMALY":76.5512,"EPHEMERIS_TYPE":0,"CLASSIFICATION_TYPE":"U","NORAD_CAT_ID":59686,"ELEMENT_SET_NO":999,"REV_AT_EPOCH":7978,"BSTAR":-0.00053502955,"MEAN_MOTION_DOT":-0.00014936,"MEAN_MOTION_DDOT":0},{"OBJECT_NAME":"STARLINK-32089","OBJECT_ID":"2024-086F","EPOCH":"2025-09-30T05:27:01.465056","MEAN_MOTION":15.27621071,"ECCENTRICITY":2.723e-5,"INCLINATION":42.9962,"RA_OF_ASC_NODE":245.919,"ARG_OF_PERICENTER":265.8819,"MEAN_ANOMALY":94.2002,"EPHEMERIS_TYPE":0,"CLASSIFICATION_TYPE":"U","NORAD_CAT_ID":59687,"ELEMENT_SET_NO":999,"REV_AT_EPOCH":7957,"BSTAR":-0.00020351736,"MEAN_MOTION_DOT":-5.864e-5,"MEAN_MOTION_DDOT":0},{"OBJECT_NAME":"STARLINK-32103","OBJECT_ID":"2024-086G","EPOCH":"2025-09-30T05:27:16.870176","MEAN_MOTION":15.27592923,"ECCENTRICITY":0.0001201,"INCLINATION":43.003,"RA_OF_ASC_NODE":235.5349,"ARG_OF_PERICENTER":253.8936,"MEAN_ANOMALY":106.1784,"EPHEMERIS_TYPE":0,"CLASSIFICATION_TYPE":"U","NORAD_CAT_ID":59688,"ELEMENT_SET_NO":999,"REV_AT_EPOCH":7969,"BSTAR":2.3962937e-5,"MEAN_MOTION_DOT":3.98e-6,"MEAN_MOTION_DDOT":0},{"OBJECT_NAME":"STARLINK-32105","OBJECT_ID":"2024-086H","EPOCH":"2025-09-29T08:53:45.399840","MEAN_MOTION":15.27606602,"ECCENTRICITY":0.00015537,"INCLINATION":43.0011,"RA_OF_ASC_NODE":250.67,"ARG_OF_PERICENTER":262.8876,"MEAN_ANOMALY":97.1799,"EPHEMERIS_TYPE":0,"CLASSIFICATION_TYPE":"U","NORAD_CAT_ID":59689,"ELEMENT_SET_NO":999,"REV_AT_EPOCH":7944,"BSTAR":0.00019418958,"MEAN_MOTION_DOT":5.089e-5,"MEAN_MOTION_DDOT":0},{"OBJECT_NAME":"STARLINK-32106","OBJECT_ID":"2024-086J","EPOCH":"2025-09-30T06:01:31.840608","MEAN_MOTION":15.27593265,"ECCENTRICITY":8.252e-5,"INCLINATION":43.0007,"RA_OF_ASC_NODE":238.3167,"ARG_OF_PERICENTER":281.9258,"MEAN_ANOMALY":78.1502,"EPHEMERIS_TYPE":0,"CLASSIFICATION_TYPE":"U","NORAD_CAT_ID":59690,"ELEMENT_SET_NO":999,"REV_AT_EPOCH":7966,"BSTAR":5.1825037e-5,"MEAN_MOTION_DOT":1.165e-5,"MEAN_MOTION_DDOT":0},{"OBJECT_NAME":"STARLINK-32090","OBJECT_ID":"2024-086K","EPOCH":"2025-09-30T00:16:20.062848","MEAN_MOTION":15.27585656,"ECCENTRICITY":8.197e-5,"INCLINATION":43.0036,"RA_OF_ASC_NODE":251.196,"ARG_OF_PERICENTER":267.7787,"MEAN_ANOMALY":92.297,"EPHEMERIS_TYPE":0,"CLASSIFICATION_TYPE":"U","NORAD_CAT_ID":59691,"ELEMENT_SET_NO":999,"REV_AT_EPOCH":7949,"BSTAR":9.5686709e-5,"MEAN_MOTION_DOT":2.372e-5,"MEAN_MOTION_DDOT":0},{"OBJECT_NAME":"STARLINK-32088","OBJECT_ID":"2024-086M","EPOCH":"2025-09-30T04:38:27.957696","MEAN_MOTION":15.27607656,"ECCENTRICITY":6.4e-5,"INCLINATION":42.9959,"RA_OF_ASC_NODE":238.7387,"ARG_OF_PERICENTER":155.4456,"MEAN_ANOMALY":204.6426,"EPHEMERIS_TYPE":0,"CLASSIFICATION_TYPE":"U","NORAD_CAT_ID":59693,"ELEMENT_SET_NO":999,"REV_AT_EPOCH":7965,"BSTAR":4.9276378e-5,"MEAN_MOTION_DOT":1.096e-5,"MEAN_MOTION_DDOT":0},{"OBJECT_NAME":"STARLINK-32107","OBJECT_ID":"2024-086N","EPOCH":"2025-09-30T04:40:59.790144","MEAN_MOTION":15.27595174,"ECCENTRICITY":0.00012896,"INCLINATION":43.0035,"RA_OF_ASC_NODE":246.5342,"ARG_OF_PERICENTER":238.8207,"MEAN_ANOMALY":121.2518,"EPHEMERIS_TYPE":0,"CLASSIFICATION_TYPE":"U","NORAD_CAT_ID":59694,"ELEMENT_SET_NO":999,"REV_AT_EPOCH":7956,"BSTAR":6.1283903e-5,"MEAN_MOTION_DOT":1.425e-5,"MEAN_MOTION_DDOT":0},{"OBJECT_NAME":"STARLINK-32104","OBJECT_ID":"2024-086P","EPOCH":"2025-09-30T04:39:50.463648","MEAN_MOTION":15.27584235,"ECCENTRICITY":0.00014097,"INCLINATION":42.9987,"RA_OF_ASC_NODE":242.9971,"ARG_OF_PERICENTER":247.6939,"MEAN_ANOMALY":112.3763,"EPHEMERIS_TYPE":0,"CLASSIFICATION_TYPE":"U","NORAD_CAT_ID":59695,"ELEMENT_SET_NO":999,"REV_AT_EPOCH":7960,"BSTAR":8.1549881e-5,"MEAN_MOTION_DOT":1.983e-5,"MEAN_MOTION_DDOT":0},{"OBJECT_NAME":"STARLINK-32094","OBJECT_ID":"2024-086Q","EPOCH":"2025-09-30T06:20:41.833248","MEAN_MOTION":15.27620022,"ECCENTRICITY":7.493e-5,"INCLINATION":43.0024,"RA_OF_ASC_NODE":246.1961,"ARG_OF_PERICENTER":281.4871,"MEAN_ANOMALY":78.5897,"EPHEMERIS_TYPE":0,"CLASSIFICATION_TYPE":"U","NORAD_CAT_ID":59696,"ELEMENT_SET_NO":999,"REV_AT_EPOCH":7957,"BSTAR":0.0002437743,"MEAN_MOTION_DOT":6.46e-5,"MEAN_MOTION_DDOT":0},{"OBJECT_NAME":"STARLINK-32099","OBJECT_ID":"2024-086R","EPOCH":"2025-09-30T05:23:19.658976","MEAN_MOTION":15.2760399,"ECCENTRICITY":0.00020384,"INCLINATION":43.004,"RA_OF_ASC_NODE":245.8998,"ARG_OF_PERICENTER":287.7452,"MEAN_ANOMALY":72.3177,"EPHEMERIS_TYPE":0,"CLASSIFICATION_TYPE":"U","NORAD_CAT_ID":59697,"ELEMENT_SET_NO":999,"REV_AT_EPOCH":7957,"BSTAR":3.6987386e-5,"MEAN_MOTION_DOT":7.56e-6,"MEAN_MOTION_DDOT":0},{"OBJECT_NAME":"STARLINK-32096","OBJECT_ID":"2024-086S","EPOCH":"2025-09-30T05:43:41.739456","MEAN_MOTION":15.27590305,"ECCENTRICITY":8.31e-6,"INCLINATION":43.0029,"RA_OF_ASC_NODE":246.0029,"ARG_OF_PERICENTER":272.7455,"MEAN_ANOMALY":87.3387,"EPHEMERIS_TYPE":0,"CLASSIFICATION_TYPE":"U","NORAD_CAT_ID":59698,"ELEMENT_SET_NO":999,"REV_AT_EPOCH":7957,"BSTAR":3.1236312e-5,"MEAN_MOTION_DOT":5.98e-6,"MEAN_MOTION_DDOT":0},{"OBJECT_NAME":"STARLINK-32102","OBJECT_ID":"2024-086T","EPOCH":"2025-09-30T05:32:35.847744","MEAN_MOTION":15.27606597,"ECCENTRICITY":9.069e-5,"INCLINATION":42.9973,"RA_OF_ASC_NODE":245.9443,"ARG_OF_PERICENTER":217.7274,"MEAN_ANOMALY":142.3514,"EPHEMERIS_TYPE":0,"CLASSIFICATION_TYPE":"U","NORAD_CAT_ID":59699,"ELEMENT_SET_NO":999,"REV_AT_EPOCH":7957,"BSTAR":0.00060221311,"MEAN_MOTION_DOT":0.0001636,"MEAN_MOTION_DDOT":0},{"OBJECT_NAME":"STARLINK-32092","OBJECT_ID":"2024-086U","EPOCH":"2025-09-29T08:00:19.685952","MEAN_MOTION":15.27588821,"ECCENTRICITY":0.00011587,"INCLINATION":43.0023,"RA_OF_ASC_NODE":251.2466,"ARG_OF_PERICENTER":197.6414,"MEAN_ANOMALY":162.4398,"EPHEMERIS_TYPE":0,"CLASSIFICATION_TYPE":"U","NORAD_CAT_ID":59700,"ELEMENT_SET_NO":999,"REV_AT_EPOCH":7943,"BSTAR":-3.997054e-6,"MEAN_MOTION_DOT":-3.72e-6,"MEAN_MOTION_DDOT":0},{"OBJECT_NAME":"STARLINK-32093","OBJECT_ID":"2024-086V","EPOCH":"2025-09-30T02:46:29.548992","MEAN_MOTION":15.27588125,"ECCENTRICITY":9.638e-5,"INCLINATION":43.0003,"RA_OF_ASC_NODE":246.7977,"ARG_OF_PERICENTER":187.9853,"MEAN_ANOMALY":172.0983,"EPHEMERIS_TYPE":0,"CLASSIFICATION_TYPE":"U","NORAD_CAT_ID":59701,"ELEMENT_SET_NO":999,"REV_AT_EPOCH":7955,"BSTAR":4.8468546e-5,"MEAN_MOTION_DOT":1.072e-5,"MEAN_MOTION_DDOT":0},{"OBJECT_NAME":"STARLINK-32087","OBJECT_ID":"2024-086W","EPOCH":"2025-09-29T23:21:30.318912","MEAN_MOTION":15.27619806,"ECCENTRICITY":0.0001201,"INCLINATION":43,"RA_OF_ASC_NODE":247.4476,"ARG_OF_PERICENTER":237.3869,"MEAN_ANOMALY":122.6866,"EPHEMERIS_TYPE":0,"CLASSIFICATION_TYPE":"U","NORAD_CAT_ID":59702,"ELEMENT_SET_NO":999,"REV_AT_EPOCH":7953,"BSTAR":0.00047695,"MEAN_MOTION_DOT":0.00012901,"MEAN_MOTION_DDOT":0},{"OBJECT_NAME":"STARLINK-32086","OBJECT_ID":"2024-086X","EPOCH":"2025-09-29T07:14:03.985728","MEAN_MOTION":15.27590013,"ECCENTRICITY":5.755e-5,"INCLINATION":42.9954,"RA_OF_ASC_NODE":251.0084,"ARG_OF_PERICENTER":241.1264,"MEAN_ANOMALY":118.953,"EPHEMERIS_TYPE":0,"CLASSIFICATION_TYPE":"U","NORAD_CAT_ID":59703,"ELEMENT_SET_NO":999,"REV_AT_EPOCH":7943,"BSTAR":0.00013067779,"MEAN_MOTION_DOT":3.337e-5,"MEAN_MOTION_DDOT":0},{"OBJECT_NAME":"STARLINK-32098","OBJECT_ID":"2024-086Y","EPOCH":"2025-09-30T06:09:36.434016","MEAN_MOTION":15.2759895,"ECCENTRICITY":0.00016542,"INCLINATION":43.0015,"RA_OF_ASC_NODE":246.1427,"ARG_OF_PERICENTER":226.831,"MEAN_ANOMALY":133.2403,"EPHEMERIS_TYPE":0,"CLASSIFICATION_TYPE":"U","NORAD_CAT_ID":59704,"ELEMENT_SET_NO":999,"REV_AT_EPOCH":7957,"BSTAR":0.00018314632,"MEAN_MOTION_DOT":4.784e-5,"MEAN_MOTION_DDOT":0},{"OBJECT_NAME":"STARLINK-11107 [DTC]","OBJECT_ID":"2024-088A","EPOCH":"2025-09-28T15:11:10.768128","MEAN_MOTION":15.69719756,"ECCENTRICITY":0.00011432,"INCLINATION":53.1596,"RA_OF_ASC_NODE":44.8484,"ARG_OF_PERICENTER":105.9423,"MEAN_ANOMALY":254.1721,"EPHEMERIS_TYPE":0,"CLASSIFICATION_TYPE":"U","NORAD_CAT_ID":59708,"ELEMENT_SET_NO":999,"REV_AT_EPOCH":8080,"BSTAR":2.4246317e-5,"MEAN_MOTION_DOT":2.351e-5,"MEAN_MOTION_DDOT":0},{"OBJECT_NAME":"STARLINK-11088 [DTC]","OBJECT_ID":"2024-088B","EPOCH":"2025-09-29T15:24:08.443296","MEAN_MOTION":15.69747614,"ECCENTRICITY":0.00013905,"INCLINATION":53.1574,"RA_OF_ASC_NODE":40.4877,"ARG_OF_PERICENTER":91.9991,"MEAN_ANOMALY":268.1186,"EPHEMERIS_TYPE":0,"CLASSIFICATION_TYPE":"U","NORAD_CAT_ID":59709,"ELEMENT_SET_NO":999,"REV_AT_EPOCH":8097,"BSTAR":0.00092969526,"MEAN_MOTION_DOT":0.00113777,"MEAN_MOTION_DDOT":0},{"OBJECT_NAME":"STARLINK-11092 [DTC]","OBJECT_ID":"2024-088C","EPOCH":"2025-09-30T01:58:50.865888","MEAN_MOTION":15.69730956,"ECCENTRICITY":0.00011723,"INCLINATION":53.1585,"RA_OF_ASC_NODE":38.2574,"ARG_OF_PERICENTER":138.6098,"MEAN_ANOMALY":221.5009,"EPHEMERIS_TYPE":0,"CLASSIFICATION_TYPE":"U","NORAD_CAT_ID":59710,"ELEMENT_SET_NO":999,"REV_AT_EPOCH":8104,"BSTAR":-7.97375e-7,"MEAN_MOTION_DOT":-6.86e-6,"MEAN_MOTION_DDOT":0},{"OBJECT_NAME":"STARLINK-11082 [DTC]","OBJECT_ID":"2024-088D","EPOCH":"2025-09-29T15:09:59.604768","MEAN_MOTION":15.69733345,"ECCENTRICITY":0.00012654,"INCLINATION":53.1584,"RA_OF_ASC_NODE":40.4289,"ARG_OF_PERICENTER":85.0765,"MEAN_ANOMALY":275.0397,"EPHEMERIS_TYPE":0,"CLASSIFICATION_TYPE":"U","NORAD_CAT_ID":59711,"ELEMENT_SET_NO":999,"REV_AT_EPOCH":8097,"BSTAR":2.8263893e-5,"MEAN_MOTION_DOT":2.84e-5,"MEAN_MOTION_DDOT":0},{"OBJECT_NAME":"STARLINK-11108 [DTC]","OBJECT_ID":"2024-088E","EPOCH":"2025-09-29T18:06:18.261792","MEAN_MOTION":15.69718411,"ECCENTRICITY":0.00030573,"INCLINATION":53.1582,"RA_OF_ASC_NODE":39.7642,"ARG_OF_PERICENTER":161.1345,"MEAN_ANOMALY":198.9787,"EPHEMERIS_TYPE":0,"CLASSIFICATION_TYPE":"U","NORAD_CAT_ID":59712,"ELEMENT_SET_NO":999,"REV_AT_EPOCH":8099,"BSTAR":1.3634695e-5,"MEAN_MOTION_DOT":1.061e-5,"MEAN_MOTION_DDOT":0}]
